PROMETHEUS 2-3          
1 41855U 16067H   25158.54758334  .00036623  00000+0  69419-3 0  9994
2 41855  98.0720  10.8237 0004094 253.7735 106.3064 15.48250277470092
CORVUS BC2              
1 42846U 17042X   25158.51260907  .00002090  00000+0  15972-3 0  9996
2 42846  97.3707 331.2013 0013392 316.2005  43.8158 15.02917159430722
CORVUS BC1              
1 42847U 17042Y   25158.43094055  .00003342  00000+0  25119-3 0  9992
2 42847  97.3761 331.6524 0011945 289.3980  70.5954 15.03170508430730
MIRATA                  
1 43015U 17073C   25158.42827105  .00056818  00000+0  92071-3 0  9990
2 43015  97.5398  53.1587 0083953  93.6809 267.4046 15.48592756410475
MAKERSAT 0              
1 43016U 17073D   25158.62661245  .00012082  00000+0  48451-3 0  9992
2 43016  97.5197  36.8296 0148018 146.4941 214.5764 15.15538284409441
SIRION PATHFINDER-2     
1 43759U 18099B   25158.59333804  .00003589  00000+0  22522-3 0  9991
2 43759  97.4778 211.5669 0010819 144.7643 215.4303 15.09877856356019
CORVUS BC4              
1 43767U 18099K   25158.55666494  .00004062  00000+0  26520-3 0  9999
2 43767  97.4586 207.3591 0008614 201.5731 158.5136 15.08363266355858
MOVE-II                 
1 43780U 18099Y   25158.18051728  .00215415  00000+0  13888-2 0  9999
2 43780  97.4651 233.6219 0006084 190.6696 169.4441 15.75504252357423
SPACEBEE-7              
1 43816U 18099BL  25158.45004437  .00021696  00000+0  61555-3 0  9995
2 43816  97.4963 228.6379 0007755 122.6526 237.5466 15.36211620356472
SHIELDS 1               
1 43850U 18104B   25158.38689736  .00024211  00000+0  28732-3 0  9999
2 43850  85.0157  38.0958 0008270 136.2040 223.9881 15.61002193361117
SONATE                  
1 44400U 19038Q   25158.50655878  .00272102  30527-4  76149-3 0  9993
2 44400  97.6885 185.2536 0006795 208.0351 152.0558 15.93589434329240
DUCHIFAT-3              
1 44854U 19089C   25158.62307097  .00036986  00000+0  72543-3 0  9992
2 44854  36.9444   7.6370 0005104 300.1755  59.8496 15.46405927302718
M2 PATHFINDER           
1 45727U 20037E   25158.47397596  .00001550  00000+0  12231-3 0  9990
2 45727  97.8112 341.1108 0012525 343.7929  16.2892 15.02184387269199
NETSAT-4                
1 46504U 20068U   25158.51597136  .00009544  00000+0  32744-3 0  9997
2 46504  97.8441 136.2274 0006541 193.9123 166.1937 15.30374651258231
NETSAT-3                
1 46505U 20068V   25158.50650663  .00009723  00000+0  34913-3 0  9991
2 46505  97.8444 135.1638 0005914 206.4004 153.6934 15.28883688258193
NETSAT-1                
1 46506U 20068W   25158.35581229  .00006502  00000+0  27053-3 0  9995
2 46506  97.8471 132.8483 0005109 225.9005 134.1811 15.24130051258024
NETSAT-2                
1 46507U 20068X   25158.50603500  .00010562  00000+0  36658-3 0  9992
2 46507  97.8441 135.7047 0004012 221.4375 138.6561 15.29980354258174
WILDTRACKCUBE-SIMBA     
1 47941U 21022K   25158.50380078  .00025525  00000+0  53589-3 0  9995
2 47941  97.4237  62.9912 0007993 332.6357  27.4470 15.45316372232878
GRBALPHA                
1 47959U 21022AD  25157.86624487  .01806736  24172-5  12334-2 0  9993
2 47959  97.3977  72.6624 0008684 195.0910 165.0120 16.16572343232275
LEDSAT                  
1 49069U 21073D   25157.74165335  .00052192  00000+0  63325-3 0  9995
2 49069  97.3890 239.1608 0010033  95.8960 264.3440 15.60402453210993
GREENCUBE (IO-117)      
1 53109U 22080E   25158.10060415 -.00000003  00000+0  00000+0 0  9990
2 53109  70.1414  68.6820 0008683   9.8023 350.2805  6.42583878 67966
SITRO-AIS 5 (KATYS)     
1 57176U 23091L   25158.57993017  .00007642  00000+0  35988-3 0  9997
2 57176  97.5586 215.5264 0013136 343.3180  16.7621 15.19739114107270
SITRO-AIS 6 (CHIRKIN)   
1 57192U 23091AC  25158.56719168  .00007741  00000+0  36546-3 0  9998
2 57192  97.5587 215.5243 0013101 343.2154  16.8645 15.19648146107279
SITRO-AIS 8 (ANOKHIN)   
1 57193U 23091AD  25158.54246461  .00007799  00000+0  35365-3 0  9999
2 57193  97.5584 215.9999 0012474 343.2505  16.8316 15.21045857107303
SITRO-AIS 7 (FARTUSHNIY)
1 57194U 23091AE  25158.58865921  .00007096  00000+0  33622-3 0  9996
2 57194  97.5585 215.4852 0012967 343.8384  16.2435 15.19556186107277
SITRO-AIS 10 (BURDAEV)  
1 57199U 23091AK  25158.59395154  .00009628  00000+0  39549-3 0  9995
2 57199  97.5596 218.3631 0007902 327.4295  32.6454 15.24385115107454
SITRO-AIS 9 (SHCHUKIN)  
1 57201U 23091AM  25158.61143774  .00009230  00000+0  38136-3 0  9991
2 57201  97.5592 218.2955 0007917 327.7330  32.3421 15.24199955107457
SITRO-AIS 12 (SMIRENNIY)
1 57204U 23091AQ  25158.59377740  .00009478  00000+0  38923-3 0  9991
2 57204  97.5602 218.5587 0007680 320.3641  39.7033 15.24400733107467
SITRO-AIS 11 (SHEFFER)  
1 57208U 23091AU  25158.61264946  .00009341  00000+0  38138-3 0  9998
2 57208  97.5600 218.6659 0007558 320.8490  39.2200 15.24602814107477
VERONIKA                
1 58261U 23174F   25158.48215668  .00127682  00000+0  10577-2 0  9997
2 58261  97.4125 244.5304 0001824  95.1584 264.9886 15.69841471 88354
ROBUSTA-1E (ENSO)       
1 58470U 23185J   25158.57915296  .00047081  00000+0  68337-3 0  9997
2 58470  97.3743 233.6333 0007825  98.3390 261.8752 15.55651765 84724
SITRO-AIS 25            
1 59066U 24039R   25158.57609963  .00004749  00000+0  40410-3 0  9995
2 59066  95.3748 338.6487 0155381 193.2309 166.4819 14.89100283 68895
SITRO-AIS 26            
1 59067U 24039S   25158.60179733  .00004143  00000+0  35416-3 0  9995
2 59067  95.3751 338.6263 0155558 193.3790 166.3289 14.88954135 68895
SITRO-AIS 27            
1 59068U 24039T   25158.59724190  .00004513  00000+0  38294-3 0  9995
2 59068  95.3752 338.7463 0154848 192.7342 166.9952 14.89277538 68908
SITRO-AIS 28            
1 59071U 24039U   25158.51717119  .00005101  00000+0  43217-3 0  9999
2 59071  95.3752 338.7182 0154704 192.9179 166.8063 14.89318253 68891
GRBBETA                 
1 60237U 24128C   25158.27375085  .00003699  00000+0  28418-3 0  9995
2 60237  61.9917  87.5987 0051832  57.0050 303.6007 15.02611577 49853
OOV-CUBE (TUBSAT-30)    
1 60240U 24128F   25157.93034722  .00002362  00000+0  19911-3 0  9995
2 60240  61.9959  91.5680 0051717  53.7806 306.8048 15.00241065 49761
ROBUSTA-3A (MEDITERRAN*)
1 60243U 24128J   25158.51541796  .00006498  00000+0  46227-3 0  9991
2 60243  61.9887  85.9002 0050572  50.7783 309.7781 15.04607047 49911
LASARSAT                
1 62391U 24247Q   25158.41663613  .00009443  00000+0  37268-3 0  9999
2 62391  44.9843 171.7293 0007251  26.8625 333.2631 15.25850620 25731
CROCUBE                 
1 62394U 24247T   25158.08369293  .00009915  00000+0  38861-3 0  9996
2 62394  44.9798 173.4552 0007772  26.1158 334.0115 15.26028175 25685
